     2.10           GLONASS NAV DATA                        RINEX VERSION / TYPE
RTKCONV 2.4.2                           20200315 154807 UTC PGM / RUN BY / DATE 
log: C:\Users\Dimoon\Downloads\BINR.bin                     COMMENT             
format: NVS BINR                                            COMMENT             
                                                            END OF HEADER       
22 20  2 10 13 45  0.0 -.134212896228E-04 -.181898940355E-11  .495000000000E+05
     .311761962891E+04 -.179497814178E+01 -.186264514923E-08  .000000000000E+00
     .158781806641E+05 -.202221393585E+01 -.186264514923E-08 -.300000000000E+01
     .196852387695E+05  .192774677277E+01 -.186264514923E-08  .000000000000E+00
22 20  2 10 13 45  0.0 -.134212896228E-04 -.181898940355E-11  .495000000000E+05
     .311761962891E+04 -.179497814178E+01 -.186264514923E-08  .000000000000E+00
     .158781806641E+05 -.202221393585E+01 -.186264514923E-08 -.300000000000E+01
     .196852387695E+05  .192774677277E+01 -.186264514923E-08  .000000000000E+00
22 20  2 10 13 45  0.0 -.134212896228E-04 -.181898940355E-11  .495000000000E+05
     .311761962891E+04 -.179497814178E+01 -.186264514923E-08  .000000000000E+00
     .158781806641E+05 -.202221393585E+01 -.186264514923E-08 -.300000000000E+01
     .196852387695E+05  .192774677277E+01 -.186264514923E-08  .000000000000E+00
22 20  2 10 13 45  0.0 -.134212896228E-04 -.181898940355E-11  .495000000000E+05
     .311761962891E+04 -.179497814178E+01 -.186264514923E-08  .000000000000E+00
     .158781806641E+05 -.202221393585E+01 -.186264514923E-08 -.300000000000E+01
     .196852387695E+05  .192774677277E+01 -.186264514923E-08  .000000000000E+00
22 20  2 10 13 45  0.0 -.134212896228E-04 -.181898940355E-11  .495000000000E+05
     .311761962891E+04 -.179497814178E+01 -.186264514923E-08  .000000000000E+00
     .158781806641E+05 -.202221393585E+01 -.186264514923E-08 -.300000000000E+01
     .196852387695E+05  .192774677277E+01 -.186264514923E-08  .000000000000E+00
22 20  2 10 13 45  0.0 -.134212896228E-04 -.181898940355E-11  .495000000000E+05
     .311761962891E+04 -.179497814178E+01 -.186264514923E-08  .000000000000E+00
     .158781806641E+05 -.202221393585E+01 -.186264514923E-08 -.300000000000E+01
     .196852387695E+05  .192774677277E+01 -.186264514923E-08  .000000000000E+00
